{
    "links": {
        "self": "http://www.neowsapp.com/rest/v1/neo/3745641?api_key=iIulBulltgU6a56xZRHN4H3l9WmuAYTsLGpBGhQ2"
    },
    "id": "3745641",
    "neo_reference_id": "3745641",
    "name": "(2016 EU28)",
    "designation": "2016 EU28",
    "nasa_jpl_url": "http://ssd.jpl.nasa.gov/sbdb.cgi?sstr=3745641",
    "absolute_magnitude_h": 25.9,
    "estimated_diameter": {
        "kilometers": {
            "estimated_diameter_min": 0.0175612318,
            "estimated_diameter_max": 0.0392681082
        },
        "meters": {
            "estimated_diameter_min": 17.561231848,
            "estimated_diameter_max": 39.2681081809
        },
        "miles": {
            "estimated_diameter_min": 0.0109120402,
            "estimated_diameter_max": 0.0244000636
        },
        "feet": {
            "estimated_diameter_min": 57.6155918963,
            "estimated_diameter_max": 128.8323800441
        }
    },
    "is_potentially_hazardous_asteroid": false,
    "close_approach_data": [
        {
            "close_approach_date": "2005-08-11",
            "close_approach_date_full": "2005-Aug-11 01:30",
            "epoch_date_close_approach": 1123723800000,
            "relative_velocity": {
                "kilometers_per_second": "7.2546161693",
                "kilometers_per_hour": "26116.6182094036",
                "miles_per_hour": "16227.8509090597"
            },
            "miss_distance": {
                "astronomical": "0.125948007",
                "lunar": "48.993774723",
                "kilometers": "18841553.57794509",
                "miles": "11707598.504778642"
            },
            "orbiting_body": "Venus"
        },
        {
            "close_approach_date": "2016-03-12",
            "close_approach_date_full": "2016-Mar-12 06:51",
            "epoch_date_close_approach": 1457765460000,
            "relative_velocity": {
                "kilometers_per_second": "13.2354857134",
                "kilometers_per_hour": "47647.7485683703",
                "miles_per_hour": "29606.4579923854"
            },
            "miss_distance": {
                "astronomical": "0.0164893532",
                "lunar": "6.4143583948",
                "kilometers": "2466772.116397684",
                "miles": "1532781.1171246792"
            },
            "orbiting_body": "Earth"
        }
    ],
    "orbital_data": {
        "orbit_id": "8",
        "orbit_determination_date": "2017-07-04 06:19:06",
        "first_observation_date": "2016-03-06",
        "last_observation_date": "2016-03-11",
        "data_arc_in_days": 5,
        "observations_used": 28,
        "orbit_uncertainty": "8",
        "minimum_orbit_intersection": ".00617128",
        "jupiter_tisserand_invariant": "3.702",
        "epoch_osculation": "2457454.5",
        "eccentricity": ".5649780836060372",
        "semi_major_axis": "1.925041475858416",
        "inclination": "5.715196049851388",
        "ascending_node_longitude": "173.7446643100322",
        "orbital_period": "975.5702844678008",
        "perihelion_distance": ".8374352319657905",
        "perihelion_argument": "51.86546518935328",
        "aphelion_distance": "3.012647719751041",
        "perihelion_time": "2457497.790920232194",
        "mean_anomaly": "344.0250041112192",
        "mean_motion": ".3690149297612006",
        "equinox": "J2000",
        "orbit_class": {
            "orbit_class_type": "APO",
            "orbit_class_description": "Near-Earth asteroid orbits which cross the Earth’s orbit similar to that of 1862 Apollo",
            "orbit_class_range": "a (semi-major axis) > 1.0 AU; q (perihelion) < 1.017 AU"
        }
    },
    "is_sentry_object": false
}